{"fetched_at":"2026-07-09T08:01:18.820Z","source":"https://celestrak.org/NORAD/elements/gp.php?NAME=RADARSAT&FORMAT=JSON","constellation":"radarsat-2","records":[{"OBJECT_NAME":"RADARSAT-2","OBJECT_ID":"2007-061A","EPOCH":"2026-07-09T00:12:28.863360","CLASSIFICATION_TYPE":"U","MEAN_MOTION":14.29981404,"ECCENTRICITY":0.00013041,"INCLINATION":98.5786,"RA_OF_ASC_NODE":196.6293,"ARG_OF_PERICENTER":84.7106,"MEAN_ANOMALY":275.4225,"EPHEMERIS_TYPE":0,"NORAD_CAT_ID":32382,"ELEMENT_SET_NO":999,"REV_AT_EPOCH":96907,"BSTAR":-0.000060237243,"MEAN_MOTION_DOT":-0.00000199,"MEAN_MOTION_DDOT":0}]}
